STARLINK-33768          
1 63454U 25069X   26043.98828205  .00030353  00000+0  10327-2 0  9999
2 63454  53.1577 257.1395 0001198  79.9332 280.1804 15.30202466 49629
STARLINK-33761          
1 63455U 25069Y   26044.89320057  .00026055  00000+0  88818-3 0  9998
2 63455  53.1590 252.8300 0003753  74.0205 286.1209 15.30217149 49761
STARLINK-33737          
1 63456U 25069Z   26043.98511560  .00017383  00000+0  59768-3 0  9995
2 63456  53.1572 257.1132 0001217  81.3793 278.7346 15.30199387 49514
STARLINK-33795          
1 63457U 25069AA  26044.73101784  .00022378  00000+0  76541-3 0  9991
2 63457  53.1570 253.9578 0001007 101.8993 258.2121 15.30200141 49625
STARLINK-33756          
1 63458U 25069AB  26044.73418151  .00020502  00000+0  70243-3 0  9991
2 63458  53.1562 253.9655 0001075 102.9579 257.1542 15.30199496 49737
STARLINK-33780          
1 63459U 25069AC  26044.89635603  .00021865  00000+0  74798-3 0  9994
2 63459  53.1582 252.8452 0001037 107.5248 252.5866 15.30209168 49652
STARLINK-33679          
1 63460U 25070A   26044.04195965  .00031548  00000+0  11502-2 0  9999
2 63460  43.0045  39.3132 0000901 226.3101 133.7676 15.27603651 49207
STARLINK-33706          
1 63461U 25070B   26044.04581254  .00020886  00000+0  76626-3 0  9992
2 63461  43.0021  39.3074 0001265 218.5430 141.5332 15.27583926 49207
STARLINK-33691          
1 63462U 25070C   26044.32134186  .00035625  00000+0  12976-2 0  9996
2 63462  43.0007  37.0675 0001568 278.9410  81.1264 15.27585831 49208
STARLINK-33696          
1 63463U 25070D   26044.02010887  .00024302  00000+0  88921-3 0  9999
2 63463  43.0036  39.1134 0001904 279.7746  80.2891 15.27598944 49204
STARLINK-33701          
1 63464U 25070E   26044.04966760  .00025988  00000+0  95043-3 0  9996
2 63464  43.0019  39.3412 0001082 251.7507 108.3227 15.27585050 49208
STARLINK-33685          
1 63465U 25070F   26044.94708445  .00023553  00000+0  86218-3 0  9990
2 63465  43.0083  34.0363 0002181 292.7334  67.3287 15.27598537 49340
STARLINK-33654          
1 63466U 25070G   26044.02139726  .00023083  00000+0  84553-3 0  9998
2 63466  42.9995  39.1187 0000724 241.9859 118.0920 15.27587367 49202
STARLINK-33697          
1 63467U 25070H   26044.35089689  .00025883  00000+0  94638-3 0  9992
2 63467  43.0076  37.3086 0002821 259.0862 100.9672 15.27592101 49258
STARLINK-33720          
1 63468U 25070J   26044.02524302  .00030549  00000+0  11140-2 0  9994
2 63468  43.0024  39.1491 0001268 257.4211 102.6499 15.27610957 49207
STARLINK-33587          
1 63469U 25070K   26044.33676004  .00028791  00000+0  10512-2 0  9994
2 63469  43.0024  37.1884 0001855 261.9726  98.0916 15.27595390 49255
