[{"OBJECT_NAME":"STARLINK-33768","OBJECT_ID":"2025-069X","EPOCH":"2026-02-12T23:43:07.569120","MEAN_MOTION":15.30202466,"ECCENTRICITY":0.00011988,"INCLINATION":53.1577,"RA_OF_ASC_NODE":257.1395,"ARG_OF_PERICENTER":79.9332,"MEAN_ANOMALY":280.1804,"EPHEMERIS_TYPE":0,"CLASSIFICATION_TYPE":"U","NORAD_CAT_ID":63454,"ELEMENT_SET_NO":999,"REV_AT_EPOCH":4962,"BSTAR":0.001032669,"MEAN_MOTION_DOT":0.00030353,"MEAN_MOTION_DDOT":0},{"OBJECT_NAME":"STARLINK-33761","OBJECT_ID":"2025-069Y","EPOCH":"2026-02-13T21:26:12.529248","MEAN_MOTION":15.30217149,"ECCENTRICITY":0.00037537,"INCLINATION":53.159,"RA_OF_ASC_NODE":252.83,"ARG_OF_PERICENTER":74.0205,"MEAN_ANOMALY":286.1209,"EPHEMERIS_TYPE":0,"CLASSIFICATION_TYPE":"U","NORAD_CAT_ID":63455,"ELEMENT_SET_NO":999,"REV_AT_EPOCH":4976,"BSTAR":0.00088818353,"MEAN_MOTION_DOT":0.00026055,"MEAN_MOTION_DDOT":0},{"OBJECT_NAME":"STARLINK-33737","OBJECT_ID":"2025-069Z","EPOCH":"2026-02-12T23:38:33.987840","MEAN_MOTION":15.30199387,"ECCENTRICITY":0.00012172,"INCLINATION":53.1572,"RA_OF_ASC_NODE":257.1132,"ARG_OF_PERICENTER":81.3793,"MEAN_ANOMALY":278.7346,"EPHEMERIS_TYPE":0,"CLASSIFICATION_TYPE":"U","NORAD_CAT_ID":63456,"ELEMENT_SET_NO":999,"REV_AT_EPOCH":4951,"BSTAR":0.0005976767,"MEAN_MOTION_DOT":0.00017383,"MEAN_MOTION_DDOT":0},{"OBJECT_NAME":"STARLINK-33795","OBJECT_ID":"2025-069AA","EPOCH":"2026-02-13T17:32:39.941376","MEAN_MOTION":15.30200141,"ECCENTRICITY":0.00010072,"INCLINATION":53.157,"RA_OF_ASC_NODE":253.9578,"ARG_OF_PERICENTER":101.8993,"MEAN_ANOMALY":258.2121,"EPHEMERIS_TYPE":0,"CLASSIFICATION_TYPE":"U","NORAD_CAT_ID":63457,"ELEMENT_SET_NO":999,"REV_AT_EPOCH":4962,"BSTAR":0.00076540887,"MEAN_MOTION_DOT":0.00022378,"MEAN_MOTION_DDOT":0},{"OBJECT_NAME":"STARLINK-33756","OBJECT_ID":"2025-069AB","EPOCH":"2026-02-13T17:37:13.282464","MEAN_MOTION":15.30199496,"ECCENTRICITY":0.00010753,"INCLINATION":53.1562,"RA_OF_ASC_NODE":253.9655,"ARG_OF_PERICENTER":102.9579,"MEAN_ANOMALY":257.1542,"EPHEMERIS_TYPE":0,"CLASSIFICATION_TYPE":"U","NORAD_CAT_ID":63458,"ELEMENT_SET_NO":999,"REV_AT_EPOCH":4973,"BSTAR":0.00070242827,"MEAN_MOTION_DOT":0.00020502,"MEAN_MOTION_DDOT":0},{"OBJECT_NAME":"STARLINK-33780","OBJECT_ID":"2025-069AC","EPOCH":"2026-02-13T21:30:45.160992","MEAN_MOTION":15.30209168,"ECCENTRICITY":0.00010373,"INCLINATION":53.1582,"RA_OF_ASC_NODE":252.8452,"ARG_OF_PERICENTER":107.5248,"MEAN_ANOMALY":252.5866,"EPHEMERIS_TYPE":0,"CLASSIFICATION_TYPE":"U","NORAD_CAT_ID":63459,"ELEMENT_SET_NO":999,"REV_AT_EPOCH":4965,"BSTAR":0.00074798499,"MEAN_MOTION_DOT":0.00021865,"MEAN_MOTION_DDOT":0},{"OBJECT_NAME":"STARLINK-33679","OBJECT_ID":"2025-070A","EPOCH":"2026-02-13T01:00:25.313760","MEAN_MOTION":15.27603651,"ECCENTRICITY":9.014e-5,"INCLINATION":43.0045,"RA_OF_ASC_NODE":39.3132,"ARG_OF_PERICENTER":226.3101,"MEAN_ANOMALY":133.7676,"EPHEMERIS_TYPE":0,"CLASSIFICATION_TYPE":"U","NORAD_CAT_ID":63460,"ELEMENT_SET_NO":999,"REV_AT_EPOCH":4920,"BSTAR":0.001150225,"MEAN_MOTION_DOT":0.00031548,"MEAN_MOTION_DDOT":0},{"OBJECT_NAME":"STARLINK-33706","OBJECT_ID":"2025-070B","EPOCH":"2026-02-13T01:05:58.203456","MEAN_MOTION":15.27583926,"ECCENTRICITY":0.00012653,"INCLINATION":43.0021,"RA_OF_ASC_NODE":39.3074,"ARG_OF_PERICENTER":218.543,"MEAN_ANOMALY":141.5332,"EPHEMERIS_TYPE":0,"CLASSIFICATION_TYPE":"U","NORAD_CAT_ID":63461,"ELEMENT_SET_NO":999,"REV_AT_EPOCH":4920,"BSTAR":0.00076626033,"MEAN_MOTION_DOT":0.00020886,"MEAN_MOTION_DDOT":0},{"OBJECT_NAME":"STARLINK-33691","OBJECT_ID":"2025-070C","EPOCH":"2026-02-13T07:42:43.936704","MEAN_MOTION":15.27585831,"ECCENTRICITY":0.00015682,"INCLINATION":43.0007,"RA_OF_ASC_NODE":37.0675,"ARG_OF_PERICENTER":278.941,"MEAN_ANOMALY":81.1264,"EPHEMERIS_TYPE":0,"CLASSIFICATION_TYPE":"U","NORAD_CAT_ID":63462,"ELEMENT_SET_NO":999,"REV_AT_EPOCH":4920,"BSTAR":0.0012976267,"MEAN_MOTION_DOT":0.00035625,"MEAN_MOTION_DDOT":0},{"OBJECT_NAME":"STARLINK-33696","OBJECT_ID":"2025-070D","EPOCH":"2026-02-13T00:28:57.406368","MEAN_MOTION":15.27598944,"ECCENTRICITY":0.00019043,"INCLINATION":43.0036,"RA_OF_ASC_NODE":39.1134,"ARG_OF_PERICENTER":279.7746,"MEAN_ANOMALY":80.2891,"EPHEMERIS_TYPE":0,"CLASSIFICATION_TYPE":"U","NORAD_CAT_ID":63463,"ELEMENT_SET_NO":999,"REV_AT_EPOCH":4920,"BSTAR":0.0008892142,"MEAN_MOTION_DOT":0.00024302,"MEAN_MOTION_DDOT":0},{"OBJECT_NAME":"STARLINK-33701","OBJECT_ID":"2025-070E","EPOCH":"2026-02-13T01:11:31.280640","MEAN_MOTION":15.2758505,"ECCENTRICITY":0.00010821,"INCLINATION":43.0019,"RA_OF_ASC_NODE":39.3412,"ARG_OF_PERICENTER":251.7507,"MEAN_ANOMALY":108.3227,"EPHEMERIS_TYPE":0,"CLASSIFICATION_TYPE":"U","NORAD_CAT_ID":63464,"ELEMENT_SET_NO":999,"REV_AT_EPOCH":4920,"BSTAR":0.00095043311,"MEAN_MOTION_DOT":0.00025988,"MEAN_MOTION_DDOT":0},{"OBJECT_NAME":"STARLINK-33685","OBJECT_ID":"2025-070F","EPOCH":"2026-02-13T22:43:48.096480","MEAN_MOTION":15.27598537,"ECCENTRICITY":0.00021812,"INCLINATION":43.0083,"RA_OF_ASC_NODE":34.0363,"ARG_OF_PERICENTER":292.7334,"MEAN_ANOMALY":67.3287,"EPHEMERIS_TYPE":0,"CLASSIFICATION_TYPE":"U","NORAD_CAT_ID":63465,"ELEMENT_SET_NO":999,"REV_AT_EPOCH":4934,"BSTAR":0.00086218442,"MEAN_MOTION_DOT":0.00023553,"MEAN_MOTION_DDOT":0},{"OBJECT_NAME":"STARLINK-33654","OBJECT_ID":"2025-070G","EPOCH":"2026-02-13T00:30:48.723264","MEAN_MOTION":15.27587367,"ECCENTRICITY":7.247e-5,"INCLINATION":42.9995,"RA_OF_ASC_NODE":39.1187,"ARG_OF_PERICENTER":241.9859,"MEAN_ANOMALY":118.092,"EPHEMERIS_TYPE":0,"CLASSIFICATION_TYPE":"U","NORAD_CAT_ID":63466,"ELEMENT_SET_NO":999,"REV_AT_EPOCH":4920,"BSTAR":0.00084552855,"MEAN_MOTION_DOT":0.00023083,"MEAN_MOTION_DDOT":0},{"OBJECT_NAME":"STARLINK-33697","OBJECT_ID":"2025-070H","EPOCH":"2026-02-13T08:25:17.491296","MEAN_MOTION":15.27592101,"ECCENTRICITY":0.00028217,"INCLINATION":43.0076,"RA_OF_ASC_NODE":37.3086,"ARG_OF_PERICENTER":259.0862,"MEAN_ANOMALY":100.9672,"EPHEMERIS_TYPE":0,"CLASSIFICATION_TYPE":"U","NORAD_CAT_ID":63467,"ELEMENT_SET_NO":999,"REV_AT_EPOCH":4925,"BSTAR":0.00094638198,"MEAN_MOTION_DOT":0.00025883,"MEAN_MOTION_DDOT":0},{"OBJECT_NAME":"STARLINK-33720","OBJECT_ID":"2025-070J","EPOCH":"2026-02-13T00:36:20.996928","MEAN_MOTION":15.27610957,"ECCENTRICITY":0.00012682,"INCLINATION":43.0024,"RA_OF_ASC_NODE":39.1491,"ARG_OF_PERICENTER":257.4211,"MEAN_ANOMALY":102.6499,"EPHEMERIS_TYPE":0,"CLASSIFICATION_TYPE":"U","NORAD_CAT_ID":63468,"ELEMENT_SET_NO":999,"REV_AT_EPOCH":4920,"BSTAR":0.0011139968,"MEAN_MOTION_DOT":0.00030549,"MEAN_MOTION_DDOT":0},{"OBJECT_NAME":"STARLINK-33587","OBJECT_ID":"2025-070K","EPOCH":"2026-02-13T08:04:56.067456","MEAN_MOTION":15.2759539,"ECCENTRICITY":0.00018551,"INCLINATION":43.0024,"RA_OF_ASC_NODE":37.1884,"ARG_OF_PERICENTER":261.9726,"MEAN_ANOMALY":98.0916,"EPHEMERIS_TYPE":0,"CLASSIFICATION_TYPE":"U","NORAD_CAT_ID":63469,"ELEMENT_SET_NO":999,"REV_AT_EPOCH":4925,"BSTAR":0.0010511684,"MEAN_MOTION_DOT":0.00028791,"MEAN_MOTION_DDOT":0}]
